{
  "links" : {
    "next" : "https://api.nasa.gov/neo/rest/v1/feed?start_date=2000-07-23&end_date=2000-07-23&detailed=true&api_key=t0TVs3DtDT2H8Oy2Zy8m2eVrNsAVKAexjcZXUckd",
    "prev" : "https://api.nasa.gov/neo/rest/v1/feed?start_date=2000-07-21&end_date=2000-07-21&detailed=true&api_key=t0TVs3DtDT2H8Oy2Zy8m2eVrNsAVKAexjcZXUckd",
    "self" : "https://api.nasa.gov/neo/rest/v1/feed?start_date=2000-07-22&end_date=2000-07-22&detailed=true&api_key=t0TVs3DtDT2H8Oy2Zy8m2eVrNsAVKAexjcZXUckd"
  },
  "element_count" : 6,
  "near_earth_objects" : {
    "2000-07-22" : [ {
      "links" : {
        "self" : "https://api.nasa.gov/neo/rest/v1/neo/2277810?api_key=t0TVs3DtDT2H8Oy2Zy8m2eVrNsAVKAexjcZXUckd"
      },
      "neo_reference_id" : "2277810",
      "name" : "277810 (2006 FV35)",
      "nasa_jpl_url" : "http://ssd.jpl.nasa.gov/sbdb.cgi?sstr=2277810",
      "absolute_magnitude_h" : 21.8,
      "estimated_diameter" : {
        "kilometers" : {
          "estimated_diameter_min" : 0.1160259082,
          "estimated_diameter_max" : 0.2594418179
        },
        "meters" : {
          "estimated_diameter_min" : 116.0259082094,
          "estimated_diameter_max" : 259.4418179074
        },
        "miles" : {
          "estimated_diameter_min" : 0.0720951346,
          "estimated_diameter_max" : 0.1612096218
        },
        "feet" : {
          "estimated_diameter_min" : 380.6624406898,
          "estimated_diameter_max" : 851.1870938635
        }
      },
      "is_potentially_hazardous_asteroid" : false,
      "close_approach_data" : [ {
        "close_approach_date" : "2000-07-22",
        "epoch_date_close_approach" : 964249200000,
        "relative_velocity" : {
          "kilometers_per_second" : "11.2844090859",
          "kilometers_per_hour" : "40623.872709307",
          "miles_per_hour" : "25242.0946842913"
        },
        "miss_distance" : {
          "astronomical" : "0.3364749842",
          "lunar" : "130.8887634277",
          "kilometers" : "50335940",
          "miles" : "31277304"
        },
        "orbiting_body" : "Earth"
      } ],
      "orbital_data" : {
        "orbit_id" : "51",
        "orbit_determination_date" : "2017-04-06 09:24:24",
        "orbit_uncertainty" : "1",
        "minimum_orbit_intersection" : ".104736",
        "jupiter_tisserand_invariant" : "6.003",
        "epoch_osculation" : "2458000.5",
        "eccentricity" : ".3775352983208624",
        "semi_major_axis" : "1.001342942840337",
        "inclination" : "7.104126563177385",
        "ascending_node_longitude" : "179.5057827726986",
        "orbital_period" : "365.9929240029879",
        "perihelion_distance" : ".6233006361936202",
        "perihelion_argument" : "170.8521652770838",
        "aphelion_distance" : "1.379385249487054",
        "perihelion_time" : "2457994.548482506686",
        "mean_anomaly" : "5.854064811306019",
        "mean_motion" : ".983625574130119",
        "equinox" : "J2000"
      }
    }, {
      "links" : {
        "self" : "https://api.nasa.gov/neo/rest/v1/neo/2458418?api_key=t0TVs3DtDT2H8Oy2Zy8m2eVrNsAVKAexjcZXUckd"
      },
      "neo_reference_id" : "2458418",
      "name" : "458418 (2011 AM12)",
      "nasa_jpl_url" : "http://ssd.jpl.nasa.gov/sbdb.cgi?sstr=2458418",
      "absolute_magnitude_h" : 19.5,
      "estimated_diameter" : {
        "kilometers" : {
          "estimated_diameter_min" : 0.3346223745,
          "estimated_diameter_max" : 0.7482383761
        },
        "meters" : {
          "estimated_diameter_min" : 334.6223744549,
          "estimated_diameter_max" : 748.2383760735
        },
        "miles" : {
          "estimated_diameter_min" : 0.2079246394,
          "estimated_diameter_max" : 0.464933628
        },
        "feet" : {
          "estimated_diameter_min" : 1097.8424710066,
          "estimated_diameter_max" : 2454.8503937571
        }
      },
      "is_potentially_hazardous_asteroid" : true,
      "close_approach_data" : [ {
        "close_approach_date" : "2000-07-22",
        "epoch_date_close_approach" : 964249200000,
        "relative_velocity" : {
          "kilometers_per_second" : "25.7017795994",
          "kilometers_per_hour" : "92526.4065577795",
          "miles_per_hour" : "57492.3107858603"
        },
        "miss_distance" : {
          "astronomical" : "0.1077849223",
          "lunar" : "41.9283332825",
          "kilometers" : "16124395",
          "miles" : "10019234"
        },
        "orbiting_body" : "Earth"
      } ],
      "orbital_data" : {
        "orbit_id" : "26",
        "orbit_determination_date" : "2017-04-06 09:19:48",
        "orbit_uncertainty" : "0",
        "minimum_orbit_intersection" : ".00803028",
        "jupiter_tisserand_invariant" : "3.594",
        "epoch_osculation" : "2458000.5",
        "eccentricity" : ".5374951507131843",
        "semi_major_axis" : "1.854462055451618",
        "inclination" : "38.50091552904151",
        "ascending_node_longitude" : "124.7942812859417",
        "orbital_period" : "922.4128707956813",
        "perihelion_distance" : ".8576976934647692",
        "perihelion_argument" : "237.7160546006993",
        "aphelion_distance" : "2.851226417438468",
        "perihelion_time" : "2458244.067896178250",
        "mean_anomaly" : "264.9401353771952",
        "mean_motion" : ".3902807640676793",
        "equinox" : "J2000"
      }
    }, {
      "links" : {
        "self" : "https://api.nasa.gov/neo/rest/v1/neo/3157487?api_key=t0TVs3DtDT2H8Oy2Zy8m2eVrNsAVKAexjcZXUckd"
      },
      "neo_reference_id" : "3157487",
      "name" : "(2003 OQ13)",
      "nasa_jpl_url" : "http://ssd.jpl.nasa.gov/sbdb.cgi?sstr=3157487",
      "absolute_magnitude_h" : 20.3,
      "estimated_diameter" : {
        "kilometers" : {
          "estimated_diameter_min" : 0.2315021222,
          "estimated_diameter_max" : 0.5176544822
        },
        "meters" : {
          "estimated_diameter_min" : 231.5021222103,
          "estimated_diameter_max" : 517.6544821978
        },
        "miles" : {
          "estimated_diameter_min" : 0.1438487052,
          "estimated_diameter_max" : 0.3216554833
        },
        "feet" : {
          "estimated_diameter_min" : 759.5214226325,
          "estimated_diameter_max" : 1698.3415313737
        }
      },
      "is_potentially_hazardous_asteroid" : false,
      "close_approach_data" : [ {
        "close_approach_date" : "2000-07-22",
        "epoch_date_close_approach" : 964249200000,
        "relative_velocity" : {
          "kilometers_per_second" : "8.8284864232",
          "kilometers_per_hour" : "31782.5511236663",
          "miles_per_hour" : "19748.441280147"
        },
        "miss_distance" : {
          "astronomical" : "0.0975623746",
          "lunar" : "37.9517631531",
          "kilometers" : "14595123",
          "miles" : "9068989"
        },
        "orbiting_body" : "Earth"
      } ],
      "orbital_data" : {
        "orbit_id" : "22",
        "orbit_determination_date" : "2017-04-06 09:13:59",
        "orbit_uncertainty" : "0",
        "minimum_orbit_intersection" : ".0918922",
        "jupiter_tisserand_invariant" : "4.944",
        "epoch_osculation" : "2458000.5",
        "eccentricity" : ".1606478853566789",
        "semi_major_axis" : "1.302280557165506",
        "inclination" : "16.15094099703231",
        "ascending_node_longitude" : "123.7551334570639",
        "orbital_period" : "542.8192765170264",
        "perihelion_distance" : "1.09307193951575",
        "perihelion_argument" : "152.8497354479894",
        "aphelion_distance" : "1.511489174815262",
        "perihelion_time" : "2458240.949250411850",
        "mean_anomaly" : "200.5330578831223",
        "mean_motion" : ".6632041557365511",
        "equinox" : "J2000"
      }
    } ]
  }
}